[{"OBJECT_NAME":"STARLINK-2475","OBJECT_ID":"2021-027AT","EPOCH":"2026-03-09T13:07:51.631968","MEAN_MOTION":15.30212263,"ECCENTRICITY":0.00011489,"INCLINATION":53.1606,"RA_OF_ASC_NODE":165.9904,"ARG_OF_PERICENTER":102.8051,"MEAN_ANOMALY":257.3078,"EPHEMERIS_TYPE":0,"CLASSIFICATION_TYPE":"U","NORAD_CAT_ID":48133,"ELEMENT_SET_NO":999,"REV_AT_EPOCH":27249,"BSTAR":0.0004945958,"MEAN_MOTION_DOT":0.00014323,"MEAN_MOTION_DDOT":0},{"OBJECT_NAME":"DONGPO 10","OBJECT_ID":"2022-167H","EPOCH":"2026-03-09T22:44:56.137344","MEAN_MOTION":15.322785,"ECCENTRICITY":0.00061655,"INCLINATION":97.685,"RA_OF_ASC_NODE":235.0962,"ARG_OF_PERICENTER":106.9526,"MEAN_ANOMALY":253.2392,"EPHEMERIS_TYPE":0,"CLASSIFICATION_TYPE":"U","NORAD_CAT_ID":54689,"ELEMENT_SET_NO":999,"REV_AT_EPOCH":18015,"BSTAR":0.00049390523,"MEAN_MOTION_DOT":0.00015333,"MEAN_MOTION_DDOT":0}]
